[{"OBJECT_NAME":"SHIYAN-1 (SY-1)","OBJECT_ID":"2004-012A","EPOCH":"2026-03-09T17:40:34.066560","MEAN_MOTION":15.31043463,"ECCENTRICITY":0.00058726,"INCLINATION":97.8764,"RA_OF_ASC_NODE":140.5238,"ARG_OF_PERICENTER":23.6952,"MEAN_ANOMALY":336.4557,"EPHEMERIS_TYPE":0,"CLASSIFICATION_TYPE":"U","NORAD_CAT_ID":28220,"ELEMENT_SET_NO":999,"REV_AT_EPOCH":19586,"BSTAR":0.00054854449,"MEAN_MOTION_DOT":0.00016393,"MEAN_MOTION_DDOT":0},{"OBJECT_NAME":"STARLINK-35754","OBJECT_ID":"2025-294AA","EPOCH":"2026-03-09T23:24:33.251904","MEAN_MOTION":15.27592727,"ECCENTRICITY":0.00010505,"INCLINATION":43.0022,"RA_OF_ASC_NODE":36.3933,"ARG_OF_PERICENTER":251.6572,"MEAN_ANOMALY":108.4166,"EPHEMERIS_TYPE":0,"CLASSIFICATION_TYPE":"U","NORAD_CAT_ID":67054,"ELEMENT_SET_NO":999,"REV_AT_EPOCH":1484,"BSTAR":0.00084834963,"MEAN_MOTION_DOT":0.00023165,"MEAN_MOTION_DDOT":0}]
